start=new Date('2023-05-12T00:00:00.000Z').valueOf();
sats=[{"MEAN_MOTION_DOT":"0.00036399","BSTAR":"0.00244810000000","EPOCH":"2023-05-11T01:36:00.281088","TLE_LINE2":"2 48329  53.0544  61.7324 0001457  70.1031 290.0115 15.06427298112243","MEAN_MOTION":"15.06427298","APOAPSIS":"548.139","REF_FRAME":"TEME","MEAN_ELEMENT_THEORY":"SGP4","PERIOD":"95.590","LAUNCH_DATE":"2021-04-29","MEAN_MOTION_DDOT":"0.0000000000000","PERIAPSIS":"546.121","SITE":"AFETR","CLASSIFICATION_TYPE":"U","NORAD_CAT_ID":"48329","ELEMENT_SET_NO":"999","TLE_LINE1":"1 48329U 21036BF  23131.06666992  .00036399  00000-0  24481-2 0  9993","OBJECT_NAME":"STARLINK-2510","ARG_OF_PERICENTER":"70.1031","TIME_SYSTEM":"UTC","CENTER_NAME":"EARTH","INCLINATION":"53.0544","COUNTRY_CODE":"US","OBJECT_TYPE":"PAYLOAD","RA_OF_ASC_NODE":"61.7324","EPHEMERIS_TYPE":"0","SEMIMAJOR_AXIS":"6925.265","RCS_SIZE":"LARGE","DECAY_DATE":null,"MEAN_ANOMALY":"290.0115","FILE":"3905210","GP_ID":"231600556","REV_AT_EPOCH":"11224","ECCENTRICITY":"0.00014570","OBJECT_ID":"2021-036BF"},{"EPOCH":"2023-05-11T03:06:14.988960","BSTAR":"0.00207470000000","MEAN_MOTION_DOT":"0.00030817","APOAPSIS":"547.679","REF_FRAME":"TEME","TLE_LINE2":"2 48330  53.0539  61.4506 0000989 101.8866 258.2234 15.06471562112257","MEAN_MOTION":"15.06471562","CLASSIFICATION_TYPE":"U","PERIAPSIS":"546.309","SITE":"AFETR","MEAN_MOTION_DDOT":"0.0000000000000","PERIOD":"95.588","LAUNCH_DATE":"2021-04-29","MEAN_ELEMENT_THEORY":"SGP4","ELEMENT_SET_NO":"999","NORAD_CAT_ID":"48330","ARG_OF_PERICENTER":"101.8866","OBJECT_NAME":"STARLINK-2501","TLE_LINE1":"1 48330U 21036BG  23131.12934015  .00030817  00000-0  20747-2 0  9996","CENTER_NAME":"EARTH","TIME_SYSTEM":"UTC","GP_ID":"231600806","FILE":"3905210","DECAY_DATE":null,"MEAN_ANOMALY":"258.2234","RCS_SIZE":"LARGE","RA_OF_ASC_NODE":"61.4506","EPHEMERIS_TYPE":"0","SEMIMAJOR_AXIS":"6925.129","OBJECT_TYPE":"PAYLOAD","COUNTRY_CODE":"US","INCLINATION":"53.0539","ECCENTRICITY":"0.00009890","OBJECT_ID":"2021-036BG","REV_AT_EPOCH":"11225"},{"TIME_SYSTEM":"UTC","CENTER_NAME":"EARTH","TLE_LINE1":"1 48331U 21036BH  23131.12564420  .00023015  00000-0  15571-2 0  9997","ARG_OF_PERICENTER":"129.8750","OBJECT_NAME":"STARLINK-2514","OBJECT_ID":"2021-036BH","ECCENTRICITY":"0.00011500","REV_AT_EPOCH":"11225","EPHEMERIS_TYPE":"0","RA_OF_ASC_NODE":"61.4638","SEMIMAJOR_AXIS":"6925.214","OBJECT_TYPE":"PAYLOAD","COUNTRY_CODE":"US","INCLINATION":"53.0538","GP_ID":"231602057","FILE":"3905210","MEAN_ANOMALY":"230.2340","DECAY_DATE":null,"RCS_SIZE":"LARGE","MEAN_MOTION":"15.06443924","TLE_LINE2":"2 48331  53.0538  61.4638 0001150 129.8750 230.2340 15.06443924112255","REF_FRAME":"TEME","APOAPSIS":"547.875","BSTAR":"0.00155710000000","MEAN_MOTION_DOT":"0.00023015","EPOCH":"2023-05-11T03:00:55.658880","NORAD_CAT_ID":"48331","ELEMENT_SET_NO":"999","LAUNCH_DATE":"2021-04-29","PERIOD":"95.589","MEAN_ELEMENT_THEORY":"SGP4","CLASSIFICATION_TYPE":"U","PERIAPSIS":"546.283","SITE":"AFETR","MEAN_MOTION_DDOT":"0.0000000000000"},{"MEAN_MOTION":"15.06435931","TLE_LINE2":"2 48332  53.0550  61.4738 0001345 115.3781 244.7348 15.06435931112258","REF_FRAME":"TEME","APOAPSIS":"548.035","BSTAR":"0.00195570000000","MEAN_MOTION_DOT":"0.00028997","EPOCH":"2023-05-11T02:59:35.236896","NORAD_CAT_ID":"48332","ELEMENT_SET_NO":"999","MEAN_ELEMENT_THEORY":"SGP4","PERIOD":"95.590","LAUNCH_DATE":"2021-04-29","PERIAPSIS":"546.172","SITE":"AFETR","MEAN_MOTION_DDOT":"0.0000000000000","CLASSIFICATION_TYPE":"U","TIME_SYSTEM":"UTC","CENTER_NAME":"EARTH","TLE_LINE1":"1 48332U 21036BJ  23131.12471339  .00028997  00000-0  19557-2 0  9996","OBJECT_NAME":"STARLINK-2511","ARG_OF_PERICENTER":"115.3781","REV_AT_EPOCH":"11225","ECCENTRICITY":"0.00013450","OBJECT_ID":"2021-036BJ","COUNTRY_CODE":"US","INCLINATION":"53.0550","SEMIMAJOR_AXIS":"6925.238","RA_OF_ASC_NODE":"61.4738","EPHEMERIS_TYPE":"0","OBJECT_TYPE":"PAYLOAD","MEAN_ANOMALY":"244.7348","DECAY_DATE":null,"RCS_SIZE":"LARGE","GP_ID":"231601807","FILE":"3905210"},{"OBJECT_ID":"2021-036BK","ECCENTRICITY":"0.00010110","REV_AT_EPOCH":"11225","GP_ID":"231601056","FILE":"3905210","DECAY_DATE":null,"MEAN_ANOMALY":"238.4061","RCS_SIZE":"LARGE","RA_OF_ASC_NODE":"61.4984","SEMIMAJOR_AXIS":"6925.259","EPHEMERIS_TYPE":"0","OBJECT_TYPE":"PAYLOAD","COUNTRY_CODE":"US","INCLINATION":"53.0543","CENTER_NAME":"EARTH","TIME_SYSTEM":"UTC","ARG_OF_PERICENTER":"121.7027","OBJECT_NAME":"STARLINK-2518","TLE_LINE1":"1 48333U 21036BK  23131.11828705  .00022389  00000-0  15160-2 0  9994","ELEMENT_SET_NO":"999","NORAD_CAT_ID":"48333","CLASSIFICATION_TYPE":"U","SITE":"AFETR","PERIAPSIS":"546.424","MEAN_MOTION_DDOT":"0.0000000000000","PERIOD":"95.590","LAUNCH_DATE":"2021-04-29","MEAN_ELEMENT_THEORY":"SGP4","REF_FRAME":"TEME","APOAPSIS":"547.824","TLE_LINE2":"2 48333  53.0543  61.4984 0001011 121.7027 238.4061 15.06429314112258","MEAN_MOTION":"15.06429314","EPOCH":"2023-05-11T02:50:20.001120","BSTAR":"0.00151600000000","MEAN_MOTION_DOT":"0.00022389"},{"EPOCH":"2023-05-11T21:51:30.365568","BSTAR":"0.00028299000000","MEAN_MOTION_DOT":"0.00003936","APOAPSIS":"547.999","REF_FRAME":"TEME","TLE_LINE2":"2 48334  53.0548  57.9449 0001112  74.4902 285.6210 15.06395043112372","MEAN_MOTION":"15.06395043","CLASSIFICATION_TYPE":"U","SITE":"AFETR","PERIAPSIS":"546.459","MEAN_MOTION_DDOT":"0.0000000000000","LAUNCH_DATE":"2021-04-29","PERIOD":"95.592","MEAN_ELEMENT_THEORY":"SGP4","ELEMENT_SET_NO":"999","NORAD_CAT_ID":"48334","ARG_OF_PERICENTER":"74.4902","OBJECT_NAME":"STARLINK-2470","TLE_LINE1":"1 48334U 21036BL  23131.91076812  .00003936  00000-0  28299-3 0  9992","CENTER_NAME":"EARTH","TIME_SYSTEM":"UTC","GP_ID":"231636616","FILE":"3905576","DECAY_DATE":null,"MEAN_ANOMALY":"285.6210","RCS_SIZE":"LARGE","SEMIMAJOR_AXIS":"6925.364","RA_OF_ASC_NODE":"57.9449","EPHEMERIS_TYPE":"0","OBJECT_TYPE":"PAYLOAD","COUNTRY_CODE":"US","INCLINATION":"53.0548","ECCENTRICITY":"0.00011120","OBJECT_ID":"2021-036BL","REV_AT_EPOCH":"11237"},{"REF_FRAME":"TEME","APOAPSIS":"547.998","TLE_LINE2":"2 48335  53.0539  57.9567 0001092  93.3131 266.7983 15.06390725112374","MEAN_MOTION":"15.06390725","EPOCH":"2023-05-11T21:46:11.184960","MEAN_MOTION_DOT":"0.00016859","BSTAR":"0.00114830000000","ELEMENT_SET_NO":"999","NORAD_CAT_ID":"48335","CLASSIFICATION_TYPE":"U","MEAN_MOTION_DDOT":"0.0000000000000","PERIAPSIS":"546.486","SITE":"AFETR","LAUNCH_DATE":"2021-04-29","PERIOD":"95.593","MEAN_ELEMENT_THEORY":"SGP4","CENTER_NAME":"EARTH","TIME_SYSTEM":"UTC","ARG_OF_PERICENTER":"93.3131","OBJECT_NAME":"STARLINK-2441","TLE_LINE1":"1 48335U 21036BM  23131.90707390  .00016859  00000-0  11483-2 0  9998","OBJECT_ID":"2021-036BM","ECCENTRICITY":"0.00010920","REV_AT_EPOCH":"11237","FILE":"3905576","GP_ID":"231635364","RCS_SIZE":"LARGE","MEAN_ANOMALY":"266.7983","DECAY_DATE":null,"OBJECT_TYPE":"PAYLOAD","SEMIMAJOR_AXIS":"6925.377","EPHEMERIS_TYPE":"0","RA_OF_ASC_NODE":"57.9567","INCLINATION":"53.0539","COUNTRY_CODE":"US"},{"SEMIMAJOR_AXIS":"6925.414","RA_OF_ASC_NODE":"318.5304","EPHEMERIS_TYPE":"0","OBJECT_TYPE":"PAYLOAD","COUNTRY_CODE":"US","INCLINATION":"53.0534","GP_ID":"231635116","FILE":"3905576","DECAY_DATE":null,"MEAN_ANOMALY":"292.2721","RCS_SIZE":"LARGE","OBJECT_ID":"2021-038A","ECCENTRICITY":"0.00009790","REV_AT_EPOCH":"11134","TLE_LINE1":"1 48353U 21038A   23131.77991232  .00021414  00000-0  14530-2 0  9994","ARG_OF_PERICENTER":"67.8371","OBJECT_NAME":"STARLINK-2613","TIME_SYSTEM":"UTC","CENTER_NAME":"EARTH","LAUNCH_DATE":"2021-05-04","PERIOD":"95.594","MEAN_ELEMENT_THEORY":"SGP4","CLASSIFICATION_TYPE":"U","PERIAPSIS":"546.601","SITE":"AFETR","MEAN_MOTION_DDOT":"0.0000000000000","NORAD_CAT_ID":"48353","ELEMENT_SET_NO":"999","BSTAR":"0.00145300000000","MEAN_MOTION_DOT":"0.00021414","EPOCH":"2023-05-11T18:43:04.424448","MEAN_MOTION":"15.06378495","TLE_LINE2":"2 48353  53.0534 318.5304 0000979  67.8371 292.2721 15.06378495111349","REF_FRAME":"TEME","APOAPSIS":"547.957"},{"ELEMENT_SET_NO":"999","NORAD_CAT_ID":"48354","CLASSIFICATION_TYPE":"U","MEAN_MOTION_DDOT":"0.0000000000000","SITE":"AFETR","PERIAPSIS":"546.560","LAUNCH_DATE":"2021-05-04","PERIOD":"95.594","MEAN_ELEMENT_THEORY":"SGP4","APOAPSIS":"548.007","REF_FRAME":"TEME","TLE_LINE2":"2 48354  53.0535 318.5479 0001045  71.9690 288.1413 15.06377136111342","MEAN_MOTION":"15.06377136","EPOCH":"2023-05-11T18:37:45.901344","MEAN_MOTION_DOT":"0.00020277","BSTAR":"0.00137710000000","OBJECT_ID":"2021-038B","ECCENTRICITY":"0.00010450","REV_AT_EPOCH":"11134","FILE":"3905576","GP_ID":"231635868","RCS_SIZE":"LARGE","DECAY_DATE":null,"MEAN_ANOMALY":"288.1413","OBJECT_TYPE":"PAYLOAD","RA_OF_ASC_NODE":"318.5479","EPHEMERIS_TYPE":"0","SEMIMAJOR_AXIS":"6925.419","INCLINATION":"53.0535","COUNTRY_CODE":"US","CENTER_NAME":"EARTH","TIME_SYSTEM":"UTC","ARG_OF_PERICENTER":"71.9690","OBJECT_NAME":"STARLINK-2674","TLE_LINE1":"1 48354U 21038B   23131.77622571  .00020277  00000-0  13771-2 0  9994"},{"MEAN_MOTION":"15.06377964","TLE_LINE2":"2 48355  53.0535 318.5645 0001180  69.5478 290.5638 15.06377964111340","REF_FRAME":"TEME","APOAPSIS":"548.098","MEAN_MOTION_DOT":"0.00015676","BSTAR":"0.00106960000000","EPOCH":"2023-05-11T18:32:27.169152","NORAD_CAT_ID":"48355","ELEMENT_SET_NO":"999","MEAN_ELEMENT_THEORY":"SGP4","PERIOD":"95.594","LAUNCH_DATE":"2021-05-04","MEAN_MOTION_DDOT":"0.0000000000000","SITE":"AFETR","PERIAPSIS":"546.464","CLASSIFICATION_TYPE":"U","TIME_SYSTEM":"UTC","CENTER_NAME":"EARTH","TLE_LINE1":"1 48355U 21038C   23131.77253668  .00015676  00000-0  10696-2 0  9992","OBJECT_NAME":"STARLINK-2635","ARG_OF_PERICENTER":"69.5478","REV_AT_EPOCH":"11134","ECCENTRICITY":"0.00011800","OBJECT_ID":"2021-038C","INCLINATION":"53.0535","COUNTRY_CODE":"US","OBJECT_TYPE":"PAYLOAD","EPHEMERIS_TYPE":"0","RA_OF_ASC_NODE":"318.5645","SEMIMAJOR_AXIS":"6925.416","RCS_SIZE":"LARGE","DECAY_DATE":null,"MEAN_ANOMALY":"290.5638","FILE":"3905576","GP_ID":"231636618"}];
